{"type": "FeatureCollection", "features": [ {"type": "Feature", "properties": {"norad_id": 66969, "name": "STARLINK-36149", "group": "last-30-days", "lat": -4.780693598108019, "lon": 85.25159501450905, "alt_km": 372.41689178307024, "timestamp": "2025-12-25T07:41:08.451279+00:00", "meta": {"OBJECT_NAME": "STARLINK-36149", "OBJECT_ID": "2025-288L", "EPOCH": "2025-12-24T22:00:03.000096", "MEAN_MOTION": 15.67067842, "ECCENTRICITY": 0.00014072, "INCLINATION": 43.0002, "RA_OF_ASC_NODE": 92.8174, "ARG_OF_PERICENTER": 274.1194, "MEAN_ANOMALY": 320.9622, "EPHEMERIS_TYPE": 0, "CLASSIFICATION_TYPE": "U", "NORAD_CAT_ID": 66969, "ELEMENT_SET_NO": 999, "REV_AT_EPOCH": 378, "BSTAR": -0.021102079, "MEAN_MOTION_DOT": -0.02034922, "MEAN_MOTION_DDOT": 0}, "tle": {"line1": "1 66969U 25288L   25358.91670139 -.02034922  00000+0 -21102-1 0  9990", "line2": "2 66969  43.0002  92.8174 0001407 274.1194 320.9622 15.67067842  3786"}}, "geometry": {"type": "Point", "coordinates": [85.25159501450905, -4.780693598108019]}}, {"type": "Feature", "properties": {"norad_id": 66970, "name": "STARLINK-35703", "group": "last-30-days", "lat": 0.44137567870588595, "lon": 90.85480216232506, "alt_km": 371.9709889626356, "timestamp": "2025-12-25T07:41:08.451292+00:00", "meta": {"OBJECT_NAME": "STARLINK-35703", "OBJECT_ID": "2025-288M", "EPOCH": "2025-12-24T22:00:03.000096", "MEAN_MOTION": 15.67065732, "ECCENTRICITY": 0.00013309, "INCLINATION": 43.0006, "RA_OF_ASC_NODE": 92.7977, "ARG_OF_PERICENTER": 271.7941, "MEAN_ANOMALY": 330.9612, "EPHEMERIS_TYPE": 0, "CLASSIFICATION_TYPE": "U", "NORAD_CAT_ID": 66970, "ELEMENT_SET_NO": 999, "REV_AT_EPOCH": 378, "BSTAR": -0.021121541, "MEAN_MOTION_DOT": -0.02036349, "MEAN_MOTION_DDOT": 0}, "tle": {"line1": "1 66970U 25288M   25358.91670139 -.02036349  00000+0 -21122-1 0  9999", "line2": "2 66970  43.0006  92.7977 0001330 271.7941 330.9612 15.67065732  3786"}}, "geometry": {"type": "Point", "coordinates": [90.85480216232506, 0.44137567870588595]}}, {"type": "Feature", "properties": {"norad_id": 66971, "name": "STARLINK-35678", "group": "last-30-days", "lat": -9.954209372843028, "lon": 79.56538687436881, "alt_km": 373.09819439216517, "timestamp": "2025-12-25T07:41:08.451302+00:00", "meta": {"OBJECT_NAME": "STARLINK-35678", "OBJECT_ID": "2025-288N", "EPOCH": "2025-12-24T22:00:03.000096", "MEAN_MOTION": 15.67057897, "ECCENTRICITY": 0.00012319, "INCLINATION": 43.0005, "RA_OF_ASC_NODE": 92.8377, "ARG_OF_PERICENTER": 265.511, "MEAN_ANOMALY": 321.914, "EPHEMERIS_TYPE": 0, "CLASSIFICATION_TYPE": "U", "NORAD_CAT_ID": 66971, "ELEMENT_SET_NO": 999, "REV_AT_EPOCH": 378, "BSTAR": -0.021023944, "MEAN_MOTION_DOT": -0.02027449, "MEAN_MOTION_DDOT": 0}, "tle": {"line1": "1 66971U 25288N   25358.91670139 -.02027449  00000+0 -21024-1 0  9992", "line2": "2 66971  43.0005  92.8377 0001231 265.5110 321.9140 15.67057897  3789"}}, "geometry": {"type": "Point", "coordinates": [79.56538687436881, -9.954209372843028]}}, {"type": "Feature", "properties": {"norad_id": 66972, "name": "STARLINK-34846", "group": "last-30-days", "lat": -8.667839956869791, "lon": 81.00031574699918, "alt_km": 372.8449137166608, "timestamp": "2025-12-25T07:41:08.451312+00:00", "meta": {"OBJECT_NAME": "STARLINK-34846", "OBJECT_ID": "2025-288P", "EPOCH": "2025-12-24T22:00:03.000096", "MEAN_MOTION": 15.67068924, "ECCENTRICITY": 0.00013944, "INCLINATION": 43.0003, "RA_OF_ASC_NODE": 92.8326, "ARG_OF_PERICENTER": 270.8857, "MEAN_ANOMALY": 318.447, "EPHEMERIS_TYPE": 0, "CLASSIFICATION_TYPE": "U", "NORAD_CAT_ID": 66972, "ELEMENT_SET_NO": 999, "REV_AT_EPOCH": 378, "BSTAR": -0.021145005, "MEAN_MOTION_DOT": -0.02038617, "MEAN_MOTION_DDOT": 0}, "tle": {"line1": "1 66972U 25288P   25358.91670139 -.02038617  00000+0 -21145-1 0  9996", "line2": "2 66972  43.0003  92.8326 0001394 270.8857 318.4470 15.67068924  3789"}}, "geometry": {"type": "Point", "coordinates": [81.00031574699918, -8.667839956869791]}}, {"type": "Feature", "properties": {"norad_id": 66973, "name": "STARLINK-35778", "group": "last-30-days", "lat": -7.376669435946667, "lon": 82.4255208664074, "alt_km": 372.7392272526231, "timestamp": "2025-12-25T07:41:08.451322+00:00", "meta": {"OBJECT_NAME": "STARLINK-35778", "OBJECT_ID": "2025-288Q", "EPOCH": "2025-12-24T22:00:03.000096", "MEAN_MOTION": 15.67070467, "ECCENTRICITY": 0.00013149, "INCLINATION": 43.0007, "RA_OF_ASC_NODE": 92.828, "ARG_OF_PERICENTER": 271.4121, "MEAN_ANOMALY": 319.8382, "EPHEMERIS_TYPE": 0, "CLASSIFICATION_TYPE": "U", "NORAD_CAT_ID": 66973, "ELEMENT_SET_NO": 999, "REV_AT_EPOCH": 378, "BSTAR": -0.021183907, "MEAN_MOTION_DOT": -0.0204195, "MEAN_MOTION_DDOT": 0}, "tle": {"line1": "1 66973U 25288Q   25358.91670139 -.02041950  00000+0 -21184-1 0  9994", "line2": "2 66973  43.0007  92.8280 0001314 271.4121 319.8382 15.67070467  3788"}}, "geometry": {"type": "Point", "coordinates": [82.4255208664074, -7.376669435946667]}}, {"type": "Feature", "properties": {"norad_id": 66974, "name": "STARLINK-35780", "group": "last-30-days", "lat": -6.0805551559594795, "lon": 83.84255601960001, "alt_km": 372.62685545370005, "timestamp": "2025-12-25T07:41:08.451353+00:00", "meta": {"OBJECT_NAME": "STARLINK-35780", "OBJECT_ID": "2025-288R", "EPOCH": "2025-12-24T22:00:03.000096", "MEAN_MOTION": 15.67068631, "ECCENTRICITY": 0.00013082, "INCLINATION": 43.0005, "RA_OF_ASC_NODE": 92.8233, "ARG_OF_PERICENTER": 270.9539, "MEAN_ANOMALY": 322.2128, "EPHEMERIS_TYPE": 0, "CLASSIFICATION_TYPE": "U", "NORAD_CAT_ID": 66974, "ELEMENT_SET_NO": 999, "REV_AT_EPOCH": 378, "BSTAR": -0.021135851, "MEAN_MOTION_DOT": -0.02037752, "MEAN_MOTION_DDOT": 0}, "tle": {"line1": "1 66974U 25288R   25358.91670139 -.02037752  00000+0 -21136-1 0  9997", "line2": "2 66974  43.0005  92.8233 0001308 270.9539 322.2128 15.67068631  3781"}}, "geometry": {"type": "Point", "coordinates": [83.84255601960001, -6.0805551559594795]}}, {"type": "Feature", "properties": {"norad_id": 66975, "name": "STARLINK-35777", "group": "last-30-days", "lat": -3.476308832267226, "lon": 86.65834833118322, "alt_km": 372.36071377147255, "timestamp": "2025-12-25T07:41:08.451365+00:00", "meta": {"OBJECT_NAME": "STARLINK-35777", "OBJECT_ID": "2025-288S", "EPOCH": "2025-12-24T22:00:03.000096", "MEAN_MOTION": 15.67072536, "ECCENTRICITY": 0.00014239, "INCLINATION": 43.0004, "RA_OF_ASC_NODE": 92.8127, "ARG_OF_PERICENTER": 271.6667, "MEAN_ANOMALY": 325.3335, "EPHEMERIS_TYPE": 0, "CLASSIFICATION_TYPE": "U", "NORAD_CAT_ID": 66975, "ELEMENT_SET_NO": 999, "REV_AT_EPOCH": 378, "BSTAR": -0.021207928, "MEAN_MOTION_DOT": -0.02044219, "MEAN_MOTION_DDOT": 0}, "tle": {"line1": "1 66975U 25288S   25358.91670139 -.02044219  00000+0 -21208-1 0  9994", "line2": "2 66975  43.0004  92.8127 0001423 271.6667 325.3335 15.67072536  3784"}}, "geometry": {"type": "Point", "coordinates": [86.65834833118322, -3.476308832267226]}}, {"type": "Feature", "properties": {"norad_id": 66976, "name": "STARLINK-35772", "group": "last-30-days", "lat": -40.08654811342832, "lon": -23.868427054283572, "alt_km": 437.33969398223326, "timestamp": "2025-12-25T07:41:08.451378+00:00", "meta": {"OBJECT_NAME": "STARLINK-35772", "OBJECT_ID": "2025-288T", "EPOCH": "2025-12-24T22:00:03.000096", "MEAN_MOTION": 15.45681474, "ECCENTRICITY": 0.00012757, "INCLINATION": 43.0001, "RA_OF_ASC_NODE": 93.886, "ARG_OF_PERICENTER": 281.586, "MEAN_ANOMALY": 242.5327, "EPHEMERIS_TYPE": 0, "CLASSIFICATION_TYPE": "U", "NORAD_CAT_ID": 66976, "ELEMENT_SET_NO": 999, "REV_AT_EPOCH": 378, "BSTAR": -0.050793371, "MEAN_MOTION_DOT": -0.02210503, "MEAN_MOTION_DDOT": 0}, "tle": {"line1": "1 66976U 25288T   25358.91670139 -.02210503  00000+0 -50793-1 0  9997", "line2": "2 66976  43.0001  93.8860 0001275 281.5860 242.5327 15.45681474  3781"}}, "geometry": {"type": "Point", "coordinates": [-23.868427054283572, -40.08654811342832]}}, {"type": "Feature", "properties": {"norad_id": 66977, "name": "STARLINK-35770", "group": "last-30-days", "lat": -2.171686207325089, "lon": 88.06006278949053, "alt_km": 372.2431492977257, "timestamp": "2025-12-25T07:41:08.451390+00:00", "meta": {"OBJECT_NAME": "STARLINK-35770", "OBJECT_ID": "2025-288U", "EPOCH": "2025-12-24T22:00:03.000096", "MEAN_MOTION": 15.6707163, "ECCENTRICITY": 0.00014069, "INCLINATION": 43.0005, "RA_OF_ASC_NODE": 92.8089, "ARG_OF_PERICENTER": 271.0945, "MEAN_ANOMALY": 327.821, "EPHEMERIS_TYPE": 0, "CLASSIFICATION_TYPE": "U", "NORAD_CAT_ID": 66977, "ELEMENT_SET_NO": 999, "REV_AT_EPOCH": 378, "BSTAR": -0.021167824, "MEAN_MOTION_DOT": -0.02040753, "MEAN_MOTION_DDOT": 0}, "tle": {"line1": "1 66977U 25288U   25358.91670139 -.02040753  00000+0 -21168-1 0  9990", "line2": "2 66977  43.0005  92.8089 0001406 271.0945 327.8210 15.67071630  3781"}}, "geometry": {"type": "Point", "coordinates": [88.06006278949053, -2.171686207325089]}}, {"type": "Feature", "properties": {"norad_id": 66978, "name": "STARLINK-35787", "group": "last-30-days", "lat": 1.7487854365020379, "lon": 92.25480669805617, "alt_km": 371.85622247124957, "timestamp": "2025-12-25T07:41:08.451400+00:00", "meta": {"OBJECT_NAME": "STARLINK-35787", "OBJECT_ID": "2025-288V", "EPOCH": "2025-12-24T22:00:03.000096", "MEAN_MOTION": 15.67069359, "ECCENTRICITY": 0.00013962, "INCLINATION": 43.0007, "RA_OF_ASC_NODE": 92.7938, "ARG_OF_PERICENTER": 270.6296, "MEAN_ANOMALY": 334.0388, "EPHEMERIS_TYPE": 0, "CLASSIFICATION_TYPE": "U", "NORAD_CAT_ID": 66978, "ELEMENT_SET_NO": 999, "REV_AT_EPOCH": 378, "BSTAR": -0.021141285, "MEAN_MOTION_DOT": -0.02038336, "MEAN_MOTION_DDOT": 0}, "tle": {"line1": "1 66978U 25288V   25358.91670139 -.02038336  00000+0 -21141-1 0  9996", "line2": "2 66978  43.0007  92.7938 0001396 270.6296 334.0388 15.67069359  3789"}}, "geometry": {"type": "Point", "coordinates": [92.25480669805617, 1.7487854365020379]}}]}